GALAXY 31 (G-31)        
1 54243U 22153A   26088.22023109 -.00000006  00000+0  00000+0 0  9999
2 54243   0.0199 130.4781 0001457 238.4227 135.9866  1.00271528  6334
GALAXY 32 (G-32)        
1 54244U 22153B   26087.52667995 -.00000194  00000+0  00000+0 0  9997
2 54244   0.0150 118.7764 0002950 242.1591 283.5980  1.00271225 12335
GALAXY 35 (G-35)        
1 54741U 22170A   26088.21949289 -.00000181  00000+0  00000+0 0  9990
2 54741   0.0145 140.6259 0002006 224.2993 167.5973  1.00271525 12092
GALAXY 36 (G-36)        
1 54742U 22170B   26088.16885365 -.00000204  00000+0  00000+0 0  9995
2 54742   0.0112 182.8274 0002243 224.5602 110.9618  1.00271473 11971
GALAXY 37 (G-37)        
1 57493U 23112A   26088.21914919  .00000000  00000+0  00000+0 0  9995
2 57493   0.0217 182.5763 0002094 186.4203 129.5264  1.00270255  9742
