[{"OBJECT_NAME":"GALAXY 31 (G-31)","OBJECT_ID":"2022-153A","EPOCH":"2026-03-29T05:17:07.966176","MEAN_MOTION":1.00271528,"ECCENTRICITY":0.0001457,"INCLINATION":0.0199,"RA_OF_ASC_NODE":130.4781,"ARG_OF_PERICENTER":238.4227,"MEAN_ANOMALY":135.9866,"EPHEMERIS_TYPE":0,"CLASSIFICATION_TYPE":"U","NORAD_CAT_ID":54243,"ELEMENT_SET_NO":999,"REV_AT_EPOCH":633,"BSTAR":0,"MEAN_MOTION_DOT":-6.0e-8,"MEAN_MOTION_DDOT":0},{"OBJECT_NAME":"GALAXY 32 (G-32)","OBJECT_ID":"2022-153B","EPOCH":"2026-03-28T12:38:25.147680","MEAN_MOTION":1.00271225,"ECCENTRICITY":0.000295,"INCLINATION":0.015,"RA_OF_ASC_NODE":118.7764,"ARG_OF_PERICENTER":242.1591,"MEAN_ANOMALY":283.598,"EPHEMERIS_TYPE":0,"CLASSIFICATION_TYPE":"U","NORAD_CAT_ID":54244,"ELEMENT_SET_NO":999,"REV_AT_EPOCH":1233,"BSTAR":0,"MEAN_MOTION_DOT":-1.94e-6,"MEAN_MOTION_DDOT":0},{"OBJECT_NAME":"GALAXY 35 (G-35)","OBJECT_ID":"2022-170A","EPOCH":"2026-03-29T05:16:04.185696","MEAN_MOTION":1.00271525,"ECCENTRICITY":0.0002006,"INCLINATION":0.0145,"RA_OF_ASC_NODE":140.6259,"ARG_OF_PERICENTER":224.2993,"MEAN_ANOMALY":167.5973,"EPHEMERIS_TYPE":0,"CLASSIFICATION_TYPE":"U","NORAD_CAT_ID":54741,"ELEMENT_SET_NO":999,"REV_AT_EPOCH":1209,"BSTAR":0,"MEAN_MOTION_DOT":-1.81e-6,"MEAN_MOTION_DDOT":0},{"OBJECT_NAME":"GALAXY 36 (G-36)","OBJECT_ID":"2022-170B","EPOCH":"2026-03-29T04:03:08.955360","MEAN_MOTION":1.00271473,"ECCENTRICITY":0.0002243,"INCLINATION":0.0112,"RA_OF_ASC_NODE":182.8274,"ARG_OF_PERICENTER":224.5602,"MEAN_ANOMALY":110.9618,"EPHEMERIS_TYPE":0,"CLASSIFICATION_TYPE":"U","NORAD_CAT_ID":54742,"ELEMENT_SET_NO":999,"REV_AT_EPOCH":1197,"BSTAR":0,"MEAN_MOTION_DOT":-2.04e-6,"MEAN_MOTION_DDOT":0},{"OBJECT_NAME":"GALAXY 37 (G-37)","OBJECT_ID":"2023-112A","EPOCH":"2026-03-29T05:15:34.490016","MEAN_MOTION":1.00270255,"ECCENTRICITY":0.0002094,"INCLINATION":0.0217,"RA_OF_ASC_NODE":182.5763,"ARG_OF_PERICENTER":186.4203,"MEAN_ANOMALY":129.5264,"EPHEMERIS_TYPE":0,"CLASSIFICATION_TYPE":"U","NORAD_CAT_ID":57493,"ELEMENT_SET_NO":999,"REV_AT_EPOCH":974,"BSTAR":0,"MEAN_MOTION_DOT":0,"MEAN_MOTION_DDOT":0}]
